{
  "norad_id": 56021,
  "name": "STARLINK-5907",
  "history": [
    {
      "epoch": "2026-03-28T20:00:01.999872Z",
      "apogee_km": 490.36195556211715,
      "perigee_km": 487.579266216032,
      "latitude_deg": -28.73374464192594,
      "longitude_deg": 135.15092237092853,
      "height_km": 495.730924015378,
      "semi_major_axis_km": 6867.107610889074,
      "eccentricity": 0.00020261,
      "inclination_deg": 42.9995,
      "raan_deg": 297.1887,
      "arg_perigee_deg": 259.2254,
      "mean_anomaly_deg": 56.2479,
      "mean_motion_rev_day": 15.25604575
    },
    {
      "epoch": "2026-03-29T04:00:01.999584Z",
      "apogee_km": 488.26858014043773,
      "perigee_km": 485.11899577492204,
      "latitude_deg": -7.937800891929796,
      "longitude_deg": 40.171362734396574,
      "height_km": 487.8728997667516,
      "semi_major_axis_km": 6864.83078795768,
      "eccentricity": 0.0002294,
      "inclination_deg": 42.9997,
      "raan_deg": 295.308,
      "arg_perigee_deg": 257.2588,
      "mean_anomaly_deg": 91.1847,
      "mean_motion_rev_day": 15.26363622
    },
    {
      "epoch": "2026-03-30T04:00:01.999584Z",
      "apogee_km": 487.042805713535,
      "perigee_km": 484.3412026174947,
      "latitude_deg": 43.1570725817878,
      "longitude_deg": 132.56924628226784,
      "height_km": 490.1696867023652,
      "semi_major_axis_km": 6863.829004165515,
      "eccentricity": 0.0001968,
      "inclination_deg": 42.9998,
      "raan_deg": 289.6691,
      "arg_perigee_deg": 259.2629,
      "mean_anomaly_deg": 191.0854,
      "mean_motion_rev_day": 15.26697796
    },
    {
      "epoch": "2026-03-30T06:00:02.000160Z",
      "apogee_km": 486.9557884600872,
      "perigee_km": 484.11216957348006,
      "latitude_deg": -6.14522360523398,
      "longitude_deg": -161.8611600041721,
      "height_km": 485.958940070036,
      "semi_major_axis_km": 6863.670979016783,
      "eccentricity": 0.00020715,
      "inclination_deg": 43.0095,
      "raan_deg": 289.2005,
      "arg_perigee_deg": 264.4825,
      "mean_anomaly_deg": 284.4319,
      "mean_motion_rev_day": 15.26750521
    },
    {
      "epoch": "2026-03-30T14:00:03.000384Z",
      "apogee_km": 486.84918082831155,
      "perigee_km": 484.29066543564477,
      "latitude_deg": -28.00240237695772,
      "longitude_deg": 103.88398453269836,
      "height_km": 491.8234803275551,
      "semi_major_axis_km": 6863.706923131978,
      "eccentricity": 0.00018638,
      "inclination_deg": 42.9997,
      "raan_deg": 287.3209,
      "arg_perigee_deg": 261.6422,
      "mean_anomaly_deg": 321.569,
      "mean_motion_rev_day": 15.26738528
    },
    {
      "epoch": "2026-03-30T22:00:00.999936Z",
      "apogee_km": 486.8608937434856,
      "perigee_km": 484.4529375619968,
      "latitude_deg": -41.87359100785691,
      "longitude_deg": 20.07584397036405,
      "height_km": 497.3300139961864,
      "semi_major_axis_km": 6863.793915652741,
      "eccentricity": 0.00017541,
      "inclination_deg": 42.9999,
      "raan_deg": 285.4427,
      "arg_perigee_deg": 275.1316,
      "mean_anomaly_deg": 342.2001,
      "mean_motion_rev_day": 15.26709503
    },
    {
      "epoch": "2026-03-31T20:00:01.999008Z",
      "apogee_km": 486.90326077643203,
      "perigee_km": 484.29229606671925,
      "latitude_deg": -42.58052411178959,
      "longitude_deg": 49.57750965546888,
      "height_km": 497.43226539930606,
      "semi_major_axis_km": 6863.734778421575,
      "eccentricity": 0.0001902,
      "inclination_deg": 42.9999,
      "raan_deg": 280.2719,
      "arg_perigee_deg": 273.621,
      "mean_anomaly_deg": 347.9183,
      "mean_motion_rev_day": 15.26729234
    },
    {
      "epoch": "2026-04-01T20:00:01.999008Z",
      "apogee_km": 486.89920732924475,
      "perigee_km": 484.3211838825755,
      "latitude_deg": 2.892501483414679,
      "longitude_deg": 147.52076689946392,
      "height_km": 485.1773497247504,
      "semi_major_axis_km": 6863.74719560591,
      "eccentricity": 0.0001878,
      "inclination_deg": 43.0001,
      "raan_deg": 274.631,
      "arg_perigee_deg": 268.9204,
      "mean_anomaly_deg": 95.3611,
      "mean_motion_rev_day": 15.26725091
    },
    {
      "epoch": "2026-04-02T05:24:02.336256Z",
      "apogee_km": 486.59319149948533,
      "perigee_km": 482.88188620636447,
      "latitude_deg": 9.482584081402672e-06,
      "longitude_deg": 0.8318225499803986,
      "height_km": 485.4392455325841,
      "semi_major_axis_km": 6862.874538852924,
      "eccentricity": 0.00027039,
      "inclination_deg": 43.0017,
      "raan_deg": 272.4183,
      "arg_perigee_deg": 120.0401,
      "mean_anomaly_deg": 240.0719,
      "mean_motion_rev_day": 15.27016299
    }
  ]
}